{
  "type": "FeatureCollection",
  "features": [
    {
      "type": "Feature",
      "properties": {
        "norad_id": 30691,
        "name": "FENGYUN 1C DEB",
        "group": "fengyun-1c-debris",
        "lat": 71.28339402662549,
        "lon": -28.27697048092439,
        "alt_km": 1017.8969986158891,
        "timestamp": "2025-12-13T08:49:15.964297+00:00",
        "meta_object_name": "FENGYUN 1C DEB",
        "meta_object_id": "1999-025AQZ",
        "meta_epoch": "2025-12-12T12:27:53.775360",
        "meta_mean_motion": 13.8943323,
        "meta_eccentricity": 0.01393066,
        "meta_inclination": 98.7436,
        "meta_ra_of_asc_node": 357.9418,
        "meta_arg_of_pericenter": 233.7241,
        "meta_mean_anomaly": 280.0844,
        "meta_ephemeris_type": 0,
        "meta_classification_type": "U",
        "meta_norad_cat_id": 30691,
        "meta_element_set_no": 999,
        "meta_rev_at_epoch": 95113,
        "meta_bstar": 0.001612943,
        "meta_mean_motion_dot": 2.087e-05,
        "meta_mean_motion_ddot": 0,
        "tle_line1": "1 30691U 99025AQZ 25346.51937240  .00002087  00000+0  16129-2 0  9992",
        "tle_line2": "2 30691  98.7436 357.9418 0139306 233.7241 280.0844 13.89433230951130"
      },
      "geometry": {
        "type": "Point",
        "coordinates": [
          -28.27697048092439,
          71.28339402662549
        ]
      }
    },
    {
      "type": "Feature",
      "properties": {
        "norad_id": 30693,
        "name": "FENGYUN 1C DEB",
        "group": "fengyun-1c-debris",
        "lat": -61.766470316046565,
        "lon": 135.93560690220556,
        "alt_km": 850.5930583873378,
        "timestamp": "2025-12-13T08:49:15.964308+00:00",
        "meta_object_name": "FENGYUN 1C DEB",
        "meta_object_id": "1999-025ARB",
        "meta_epoch": "2025-12-12T21:28:55.390656",
        "meta_mean_motion": 14.13286986,
        "meta_eccentricity": 0.0029284,
        "meta_inclination": 98.6862,
        "meta_ra_of_asc_node": 332.0182,
        "meta_arg_of_pericenter": 166.9531,
        "meta_mean_anomaly": 193.2406,
        "meta_ephemeris_type": 0,
        "meta_classification_type": "U",
        "meta_norad_cat_id": 30693,
        "meta_element_set_no": 999,
        "meta_rev_at_epoch": 96937,
        "meta_bstar": 0.00047043535,
        "meta_mean_motion_dot": 8.43e-06,
        "meta_mean_motion_ddot": 0,
        "tle_line1": "1 30693U 99025ARB 25346.89508554  .00000843  00000+0  47044-3 0  9996",
        "tle_line2": "2 30693  98.6862 332.0182 0029284 166.9531 193.2406 14.13286986969374"
      },
      "geometry": {
        "type": "Point",
        "coordinates": [
          135.93560690220556,
          -61.766470316046565
        ]
      }
    },
    {
      "type": "Feature",
      "properties": {
        "norad_id": 30694,
        "name": "FENGYUN 1C DEB",
        "group": "fengyun-1c-debris",
        "lat": -57.374795407684715,
        "lon": -31.93424872341359,
        "alt_km": 525.8249777070241,
        "timestamp": "2025-12-13T08:49:15.964319+00:00",
        "meta_object_name": "FENGYUN 1C DEB",
        "meta_object_id": "1999-025ARC",
        "meta_epoch": "2025-12-12T15:18:30.010176",
        "meta_mean_motion": 14.86466983,
        "meta_eccentricity": 0.01304943,
        "meta_inclination": 99.047,
        "meta_ra_of_asc_node": 312.8234,
        "meta_arg_of_pericenter": 295.0787,
        "meta_mean_anomaly": 63.6928,
        "meta_ephemeris_type": 0,
        "meta_classification_type": "U",
        "meta_norad_cat_id": 30694,
        "meta_element_set_no": 999,
        "meta_rev_at_epoch": 94,
        "meta_bstar": 0.0022095444,
        "meta_mean_motion_dot": 0.000228,
        "meta_mean_motion_ddot": 0,
        "tle_line1": "1 30694U 99025ARC 25346.63784734  .00022800  00000+0  22095-2 0  9990",
        "tle_line2": "2 30694  99.0470 312.8234 0130494 295.0787  63.6928 14.86466983   947"
      },
      "geometry": {
        "type": "Point",
        "coordinates": [
          -31.93424872341359,
          -57.374795407684715
        ]
      }
    },
    {
      "type": "Feature",
      "properties": {
        "norad_id": 30696,
        "name": "FENGYUN 1C DEB",
        "group": "fengyun-1c-debris",
        "lat": 31.69227691406808,
        "lon": -138.39490551102804,
        "alt_km": 682.3435120027252,
        "timestamp": "2025-12-13T08:49:15.964329+00:00",
        "meta_object_name": "FENGYUN 1C DEB",
        "meta_object_id": "1999-025ARE",
        "meta_epoch": "2025-12-12T21:19:09.400800",
        "meta_mean_motion": 14.44764115,
        "meta_eccentricity": 0.00899115,
        "meta_inclination": 98.3893,
        "meta_ra_of_asc_node": 35.9042,
        "meta_arg_of_pericenter": 125.3334,
        "meta_mean_anomaly": 50.9126,
        "meta_ephemeris_type": 0,
        "meta_classification_type": "U",
        "meta_norad_cat_id": 30696,
        "meta_element_set_no": 999,
        "meta_rev_at_epoch": 98306,
        "meta_bstar": 0.0013023054,
        "meta_mean_motion_dot": 4.708e-05,
        "meta_mean_motion_ddot": 0,
        "tle_line1": "1 30696U 99025ARE 25346.88830325  .00004708  00000+0  13023-2 0  9995",
        "tle_line2": "2 30696  98.3893  35.9042 0089911 125.3334  50.9126 14.44764115983064"
      },
      "geometry": {
        "type": "Point",
        "coordinates": [
          -138.39490551102804,
          31.69227691406808
        ]
      }
    },
    {
      "type": "Feature",
      "properties": {
        "norad_id": 30697,
        "name": "FENGYUN 1C DEB",
        "group": "fengyun-1c-debris",
        "lat": -26.66119561175749,
        "lon": -140.30942432273554,
        "alt_km": 794.4912845476247,
        "timestamp": "2025-12-13T08:49:15.964339+00:00",
        "meta_object_name": "FENGYUN 1C DEB",
        "meta_object_id": "1999-025ARF",
        "meta_epoch": "2025-12-12T22:28:20.099136",
        "meta_mean_motion": 14.13521392,
        "meta_eccentricity": 0.00880624,
        "meta_inclination": 98.9073,
        "meta_ra_of_asc_node": 43.7775,
        "meta_arg_of_pericenter": 184.7108,
        "meta_mean_anomaly": 348.7647,
        "meta_ephemeris_type": 0,
        "meta_classification_type": "U",
        "meta_norad_cat_id": 30697,
        "meta_element_set_no": 999,
        "meta_rev_at_epoch": 96263,
        "meta_bstar": 0.0022406249,
        "meta_mean_motion_dot": 4.336e-05,
        "meta_mean_motion_ddot": 0,
        "tle_line1": "1 30697U 99025ARF 25346.93634374  .00004336  00000+0  22406-2 0  9990",
        "tle_line2": "2 30697  98.9073  43.7775 0088062 184.7108 348.7647 14.13521392962635"
      },
      "geometry": {
        "type": "Point",
        "coordinates": [
          -140.30942432273554,
          -26.66119561175749
        ]
      }
    },
    {
      "type": "Feature",
      "properties": {
        "norad_id": 30699,
        "name": "FENGYUN 1C DEB",
        "group": "fengyun-1c-debris",
        "lat": 49.99103140700165,
        "lon": 95.63365783912049,
        "alt_km": 733.8057155233764,
        "timestamp": "2025-12-13T08:49:15.964349+00:00",
        "meta_object_name": "FENGYUN 1C DEB",
        "meta_object_id": "1999-025ARH",
        "meta_epoch": "2025-12-12T20:58:09.261120",
        "meta_mean_motion": 14.46940384,
        "meta_eccentricity": 0.00041731,
        "meta_inclination": 99.3108,
        "meta_ra_of_asc_node": 106.3624,
        "meta_arg_of_pericenter": 252.1456,
        "meta_mean_anomaly": 107.9278,
        "meta_ephemeris_type": 0,
        "meta_classification_type": "U",
        "meta_norad_cat_id": 30699,
        "meta_element_set_no": 999,
        "meta_rev_at_epoch": 97615,
        "meta_bstar": 0.0032137054,
        "meta_mean_motion_dot": 0.00011643,
        "meta_mean_motion_ddot": 0,
        "tle_line1": "1 30699U 99025ARH 25346.87371830  .00011643  00000+0  32137-2 0  9991",
        "tle_line2": "2 30699  99.3108 106.3624 0004173 252.1456 107.9278 14.46940384976156"
      },
      "geometry": {
        "type": "Point",
        "coordinates": [
          95.63365783912049,
          49.99103140700165
        ]
      }
    },
    {
      "type": "Feature",
      "properties": {
        "norad_id": 30700,
        "name": "FENGYUN 1C DEB",
        "group": "fengyun-1c-debris",
        "lat": 81.42803865253147,
        "lon": -78.7258940510515,
        "alt_km": 765.1719695989814,
        "timestamp": "2025-12-13T08:49:15.964359+00:00",
        "meta_object_name": "FENGYUN 1C DEB",
        "meta_object_id": "1999-025ARJ",
        "meta_epoch": "2025-12-12T12:09:25.078464",
        "meta_mean_motion": 14.23793829,
        "meta_eccentricity": 0.00871158,
        "meta_inclination": 98.5418,
        "meta_ra_of_asc_node": 14.828,
        "meta_arg_of_pericenter": 143.974,
        "meta_mean_anomaly": 216.7353,
        "meta_ephemeris_type": 0,
        "meta_classification_type": "U",
        "meta_norad_cat_id": 30700,
        "meta_element_set_no": 999,
        "meta_rev_at_epoch": 97566,
        "meta_bstar": 0.00027050588,
        "meta_mean_motion_dot": 6.01e-06,
        "meta_mean_motion_ddot": 0,
        "tle_line1": "1 30700U 99025ARJ 25346.50654026  .00000601  00000+0  27051-3 0  9997",
        "tle_line2": "2 30700  98.5418  14.8280 0087115 143.9740 216.7353 14.23793829975668"
      },
      "geometry": {
        "type": "Point",
        "coordinates": [
          -78.7258940510515,
          81.42803865253147
        ]
      }
    }
  ]
}